    PK11W020  2011 11  6.1881  2.303076  0.393752  221.0581  232.0180   13.7740  20111115  13.0  4.0  P/2011 W2 (Rinner)                                       MPEC 2012-D59
    CK11W030  2011 12 16.0121  0.005556  0.999928   53.6228  326.5346  134.4095  20111225  14.5  4.0  C/2011 W3 (Lovejoy)                                      MPC 77807
    PK11Y020  2012 03 21.6916  1.787195  0.712721  131.1920  310.0095    6.3517  20120314  15.0  4.0  P/2011 Y2 (Boattini)                                     MPEC 2012-D59
    CK11Y030  2011 08 22.8645  3.497619  0.705468  340.6608   84.8042   26.5127  20110827   8.0  4.0  C/2011 Y3 (Boattini)                                     MPEC 2012-D59
    CK12A010  2013 12  3.8438  7.593316  1.002959  192.0958  277.9820  120.8946  20131214   6.0  4.0  C/2012 A1 (PANSTARRS)                                    MPEC 2012-E18
    CK12A020  2012 11  5.0938  3.537497  0.996303  101.6691  191.4038  125.8685  20121109   8.5  4.0  C/2012 A2 (LINEAR)                                       MPEC 2012-E18
    PK12A030  2012 01 26.4619  0.574937  0.776170  217.6784  176.4822   11.4801  20120203  17.0  4.0  P/2012 A3 (SOHO)                                         MPC 78183
    PK12B010  2013 07 23.2375  3.825743  0.410573  162.1872   36.1860    7.6273  20130707   9.0  4.0  P/2012 B1 (PANSTARRS)                                    MPEC 2012-E18
    CK12B030  2011 12  6.8428  3.536302  1.000735   50.7357  252.9997  106.9341  20111225  10.0  4.0  C/2012 B3 (La Sagra)                                     MPEC 2012-E18
    CK12B98J  2012 09 20.5728  2.156874  0.873689   72.9873  124.0286    2.6390  20120930  12.5  4.0  C/2012 BJ98                                              MPEC 2012-E18
    CK12C010  2013 02  2.7911  4.853358  1.000000  279.6036  300.7716   96.3663             7.5  4.0  C/2012 C1 (McNaught)                                     MPEC 2012-D59
    CK12C020  2012 03 12.7338  0.801306  1.000000   62.8139  118.0125  162.7790            17.0  4.0  C/2012 C2 (Bruenjes)                                     MPEC 2012-E18
    PK12C030  2011 10  6.7469  3.605925  0.630111  344.9542  135.3677    9.0920            13.0  4.0  P/2012 C3 (PANSTARRS)                                    MPEC 2012-D59
    CK12C17H  2012 09 28.1470  1.295703  1.000000  138.0174  125.9605   27.7274            11.0  4.0  C/2012 CH17 (MOSS)                                       MPEC 2012-E18
0009P         2011 01 12.4398  1.512570  0.516333  179.0726   68.8819   10.5247  20120314   5.5 10.0  9P/Tempel                                                MPC 75715
0010P         2010 07  4.7018  1.421726  0.536238  195.5932  117.8016   12.0246  20120314   5.0 10.0  10P/Tempel                                               MPC 75715
0017P         2014 03 27.2554  2.055545  0.432387   24.4805  326.8038   19.0919  20120314  10.0  6.0  17P/Holmes                                               MPC 75731
0021P         2012 02 11.7252  1.030478  0.707052  172.6009  195.3974   31.9103  20120314   9.0  6.0  21P/Giacobini-Zinner                                     MPC 78187
0029P         2019 04  8.3700  5.734351  0.043971   50.4735  312.5717    9.3791  20120314   4.0  4.0  29P/Schwassmann-Wachmann                                 MPC 75716
0030P         2010 04 19.6134  1.881970  0.501413   13.1574  119.7312    8.1246  20120314   9.5  6.0  30P/Reinmuth                                             MPC 59599
0031P         2010 09 29.7123  3.423909  0.193565   17.9709  114.1690    4.5460  20120314   5.0  8.0  31P/Schwassmann-Wachmann                                 MPC 75716
0036P         2011 12 29.2520  3.087774  0.261484  201.5426  182.3752    9.9262  20120314   8.5  6.0  36P/Whipple                                              MPC 75716
0037P         2011 12 11.0266  1.575315  0.540664  329.3894  315.0309    8.9559  20120314  10.5  4.8  37P/Forbes                                               MPC 74638
0041P         2011 11 12.1467  1.049404  0.660196   62.1704  141.0618    9.2252  20120314  10.0 16.0  41P/Tuttle-Giacobini-Kresak                              MPC 62882
0043P         2010 07  1.9326  1.357234  0.594830  191.5094  249.8741   15.9727  20120314   8.0  6.0  43P/Wolf-Harrington                                      MPC 73465
0045P         2011 09 28.7808  0.529706  0.824658  326.2573   89.0054    4.2526  20120314  13.5  8.0  45P/Honda-Mrkos-Pajdusakova                              MPC 77020
0047P         2009 02  1.1970  2.805573  0.318344  357.9116  356.9952   13.0494  20120314   1.0 11.2  47P/Ashbrook-Jackson                                     MPC 56802
0048P         2011 09 29.3987  2.301226  0.367917  207.9938  117.2635   13.6612  20120314  10.0  6.0  48P/Johnson                                              MPC 75716
0049P         2011 10 19.0845  1.423881  0.600365  332.7979  118.8749   19.0497  20120314  11.3  4.4  49P/Arend-Rigaux                                         MPC 77020
0058P         2012 04 10.0132  1.374439  0.662573  200.4886  160.6350   13.4899  20120314  15.5  6.0  58P/Jackson-Neujmin                                      MPC 65938
0060P         2012 05 13.5200  1.618172  0.538514  216.3774  267.6842    3.6106  20120314  11.5  6.0  60P/Tsuchinshan                                          MPC 77020
0062P         2011 06 30.4153  1.383587  0.597594   30.2431   90.3032    9.7132  20120314   8.0 10.0  62P/Tsuchinshan                                          MPC 62881
0065P         2010 03  9.0115  2.458420  0.321481  198.8049   67.8795   10.4790  20120314   5.0  6.0  65P/Gunn                                                 MPC 78188
0069P         2011 07 17.3189  2.271451  0.414767  343.4710  104.8800   22.0376  20120314   9.5 12.0  69P/Taylor                                               MPC 77020
0071P         2011 12 15.9045  1.567473  0.498445  208.8225   59.6079    9.4812  20120314   9.8  6.0  71P/Clark                                                MPC 73917
0073P         2011 10 16.8987  0.942870  0.692248  198.8732   69.8424   11.3793  20120314  11.5  6.0  73P/Schwassmann-Wachmann                                 MPC 73465
0074P         2009 07 26.9842  3.552746  0.147426   86.6846   77.0819    6.6508  20120314   5.0  6.0  74P/Smirnova-Chernykh                                    MPC 75717
0078P         2012 01 12.8601  2.008537  0.462750  192.7765  210.5584    6.2552  20120314   5.5  8.0  78P/Gehrels                                              MPC 77808
0081P         2010 02 22.4793  1.597589  0.537086   41.7329  136.0993    3.2376  20120314   7.0  6.0  81P/Wild                                                 MPC 75717
0082P         2010 01 13.5257  3.633049  0.123311  226.5374  239.4115    1.1267  20120314   5.0  8.0  82P/Gehrels                                              MPC 75717
0088P         2009 10 12.0048  1.362835  0.561834  235.8714   56.7476    4.3826  20120314  11.0  6.0  88P/Howell                                               MPC 66205
0091P         2013 03  1.4082  2.616388  0.328834  354.7068  247.8741   14.0753  20120314   7.5  6.0  91P/Russell                                              MPC 69909
0096P         2012 07 14.7845  0.123802  0.959175   14.7555   94.3236   58.2981  20120314  13.0  4.8  96P/Machholz                                             MPC 65938
0097P         2011 08 20.9188  2.596555  0.458787  228.1983  185.2008   17.8849  20120314   5.5  6.0  97P/Metcalf-Brewington                                   MPC 77020
0105P         2012 02 26.1573  2.050860  0.409270   46.6702  192.4185    9.1706  20120314  11.5  6.0  105P/Singer Brewster                                     MPC 65937
0111P         2013 02  7.5224  3.698262  0.115424    4.4768   89.9430    4.2090  20120314   5.0  8.0  111P/Helin-Roman-Crockett                                MPC 75718
0115P         2011 10  6.9703  2.035133  0.520948  120.0742  176.6027   11.7059  20120314  10.5  6.0  115P/Maury                                               MPC 76027
0116P         2009 07 17.9249  2.180526  0.373199  173.6454   21.0470    3.6119  20120314   2.5 10.0  116P/Wild                                                MPC 62583
0117P         2014 03 28.0900  3.053588  0.253847  222.9078   58.8974    8.6991  20120314   2.5  8.0  117P/Helin-Roman-Alu                                     MPC 75731
0119P         2014 04  2.1360  3.028759  0.292059  181.1703  244.0995    5.1960  20120314   3.5  8.0  119P/Parker-Hartley                                      MPC 75718
0120P         2013 02 22.3639  2.729357  0.338598   30.0850    4.4527    8.7977  20120314  12.0  4.0  120P/Mueller                                             MPC 75718
0123P         2011 07  4.4830  2.128786  0.448584  102.8221   46.5984   15.3572  20120314   4.0 10.0  123P/West-Hartley                                        MPC 78188
0128P      b  2007 06 16.2444  3.056194  0.321887  210.3580  214.3654    4.3644  20120314   8.5  4.0  128P-B/Shoemaker-Holt                                    MPC 75719
0129P         2014 01 21.4190  3.886746  0.108212  305.4152  187.2454    3.5028  20120314  11.0  4.0  129P/Shoemaker-Levy                                      MPC 75731
0130P         2011 06 24.9983  2.098291  0.407357  224.4564   89.7897    7.3083  20120314  10.0  6.0  130P/McNaught-Hughes                                     MPC 78188
0131P         2012 01  7.2612  2.418028  0.343926  179.4853  214.2188    7.3559  20120314  11.0  4.0  131P/Mueller                                             MPC 76027
0133P         2013 02  9.0792  2.649736  0.161803  132.1895  160.1535    1.3868  20120314  15.4  2.0  133P/Elst-Pizarro                                        MPC 75719
0138P         2012 06 11.7493  1.700539  0.530603   95.6264  309.4140   10.0836  20120314  15.0  6.0  138P/Shoemaker-Levy                                      MPC 65938
